O3B MPOWER F1           
1 54755U 22174A   24166.47035817 -.00000020  00000+0  00000+0 0  9997
2 54755   0.0617 355.4864 0006849  89.2476 144.2988  5.00114392 28708
